[
    {
        "Altitude(m)": 706579.3035909623,
        "Argument of Periapsis(deg)": 0.011390121186627068,
        "Eccentricity": 0.0,
        "Inclination(deg)": 45.0,
        "Latitude(deg)": 41.875711674843515,
        "Longitude(deg)": -93.85773616734964,
        "Mean Anomaly(deg)": 109.71501664748081,
        "RAAN(deg)": 249.9892480585418,
        "Satellite Name": "Constellation 1 1106",
        "Satellite Number": 1106,
        "Semi-Major Axis(m)": 7083131.272910544,
        "Time(s)": 190
    },
    {
        "Altitude(m)": 706575.0288499197,
        "Argument of Periapsis(deg)": 0.011450069192872472,
        "Eccentricity": 0.0,
        "Inclination(deg)": 45.0,
        "Latitude(deg)": 41.856203967700075,
        "Longitude(deg)": -93.78478738354725,
        "Mean Anomaly(deg)": 109.77571778773071,
        "RAAN(deg)": 249.98919146937624,
        "Satellite Name": "Constellation 1 1106",
        "Satellite Number": 1106,
        "Semi-Major Axis(m)": 7083131.272910544,
        "Time(s)": 191
    },
    {
        "Altitude(m)": 706570.743819709,
        "Argument of Periapsis(deg)": 0.01151001719911788,
        "Eccentricity": 0.0,
        "Inclination(deg)": 45.0,
        "Latitude(deg)": 41.836644545339325,
        "Longitude(deg)": -93.71188544717882,
        "Mean Anomaly(deg)": 109.83641892798057,
        "RAAN(deg)": 249.98913488021068,
        "Satellite Name": "Constellation 1 1106",
        "Satellite Number": 1106,
        "Semi-Major Axis(m)": 7083131.272910544,
        "Time(s)": 192
    },
    {
        "Altitude(m)": 706566.4485259715,
        "Argument of Periapsis(deg)": 0.011569965205363285,
        "Eccentricity": 0.0,
        "Inclination(deg)": 45.0,
        "Latitude(deg)": 41.81703347401194,
        "Longitude(deg)": -93.63903058935954,
        "Mean Anomaly(deg)": 109.89712006823054,
        "RAAN(deg)": 249.98907829104513,
        "Satellite Name": "Constellation 1 1106",
        "Satellite Number": 1106,
        "Semi-Major Axis(m)": 7083131.272910544,
        "Time(s)": 193
    },
    {
        "Altitude(m)": 706562.1429944207,
        "Argument of Periapsis(deg)": 0.01162991321160869,
        "Eccentricity": 0.0,
        "Inclination(deg)": 45.0,
        "Latitude(deg)": 41.797370820038815,
        "Longitude(deg)": -93.56622253637018,
        "Mean Anomaly(deg)": 109.95782120848041,
        "RAAN(deg)": 249.98902170187958,
        "Satellite Name": "Constellation 1 1106",
        "Satellite Number": 1106,
        "Semi-Major Axis(m)": 7083131.272910544,
        "Time(s)": 194
    },
    {
        "Altitude(m)": 706557.8272508304,
        "Argument of Periapsis(deg)": 0.011689861217854095,
        "Eccentricity": 0.0,
        "Inclination(deg)": 45.0,
        "Latitude(deg)": 41.77765664981028,
        "Longitude(deg)": -93.49346151823767,
        "Mean Anomaly(deg)": -249.98147765126967,
        "RAAN(deg)": 249.98896511271394,
        "Satellite Name": "Constellation 1 1106",
        "Satellite Number": 1106,
        "Semi-Major Axis(m)": 7083131.272910544,
        "Time(s)": 195
    },
    {
        "Altitude(m)": 706553.5013210393,
        "Argument of Periapsis(deg)": 0.0117498092240995,
        "Eccentricity": 0.0,
        "Inclination(deg)": 45.0,
        "Latitude(deg)": 41.757891029785455,
        "Longitude(deg)": -93.4207475963492,
        "Mean Anomaly(deg)": -249.92077651101982,
        "RAAN(deg)": 249.9889085235484,
        "Satellite Name": "Constellation 1 1106",
        "Satellite Number": 1106,
        "Semi-Major Axis(m)": 7083131.272910544,
        "Time(s)": 196
    },
    {
        "Altitude(m)": 706549.1652309514,
        "Argument of Periapsis(deg)": 0.011809757230344905,
        "Eccentricity": 0.0,
        "Inclination(deg)": 45.0,
        "Latitude(deg)": 41.73807402649113,
        "Longitude(deg)": -93.34808083154968,
        "Mean Anomaly(deg)": -249.86007537076986,
        "RAAN(deg)": 249.98885193438284,
        "Satellite Name": "Constellation 1 1106",
        "Satellite Number": 1106,
        "Semi-Major Axis(m)": 7083131.272910544,
        "Time(s)": 197
    },
    {
        "Altitude(m)": 706544.8190065377,
        "Argument of Periapsis(deg)": 0.011869705236590313,
        "Eccentricity": 0.0,
        "Inclination(deg)": 45.0,
        "Latitude(deg)": 41.718205706521175,
        "Longitude(deg)": -93.27546128414244,
        "Mean Anomaly(deg)": -249.79937423052002,
        "RAAN(deg)": 249.98879534521728,
        "Satellite Name": "Constellation 1 1106",
        "Satellite Number": 1106,
        "Semi-Major Axis(m)": 7083131.272910544,
        "Time(s)": 198
    },
    {
        "Altitude(m)": 706540.4626738322,
        "Argument of Periapsis(deg)": 0.011929653242835719,
        "Eccentricity": 0.0,
        "Inclination(deg)": 45.0,
        "Latitude(deg)": 41.69828613653553,
        "Longitude(deg)": -93.2028890138901,
        "Mean Anomaly(deg)": -249.7386730902701,
        "RAAN(deg)": 249.98873875605173,
        "Satellite Name": "Constellation 1 1106",
        "Satellite Number": 1106,
        "Semi-Major Axis(m)": 7083131.272910544,
        "Time(s)": 199
    }
]